QIANFAN-97              
1 66039U 25233G   26005.15694156  .00000129  00000+0  16200-3 0  9992
2 66039  88.9938  59.7145 0014428 343.4785  16.5897 13.57814054 11179
QIANFAN-98              
1 66040U 25233H   26005.16134049  .00000203  00000+0  17517-3 0  9990
2 66040  88.9929  59.5683 0013558 334.8031  25.2475 13.82584282 11250
QIANFAN-99              
1 66041U 25233J   26005.10858245  .00000137  00000+0  17415-3 0  9999
2 66041  88.9937  59.7255 0014010 336.2935  23.7573 13.57810170 11162
QIANFAN-100             
1 66042U 25233K   26004.58338865  .00000039  00000+0  36113-4 0  9990
2 66042  88.9948  59.6876 0014003 341.1624  18.9012 13.59132248 11142
QIANFAN-101             
1 66043U 25233L   26005.16226514  .00000308  00000+0  12153-3 0  9999
2 66043  88.9936  59.3297 0013222 325.7223  34.3116 14.26690259 11388
QIANFAN-102             
1 66044U 25233M   26005.16631263  .00000163  00000+0  18035-3 0  9995
2 66044  88.9935  59.6796 0013753 337.1973  22.8575 13.66802942 11190
QIANFAN-103             
1 66045U 25233N   26005.10889891  .00000136  00000+0  17156-3 0  9995
2 66045  88.9938  59.7257 0013574 339.1179  20.9420 13.57797172 11161
QIANFAN-104             
1 66046U 25233P   26005.13975235  .00000167  00000+0  17142-3 0  9996
2 66046  88.9939  59.6776 0013192 341.0416  19.0254 13.71548273 11199
